[{"OBJECT_NAME":"ONEWEB-0280","OBJECT_ID":"2021-060AH","EPOCH":"2026-03-09T23:03:31.531104","MEAN_MOTION":13.16594392,"ECCENTRICITY":0.00019892,"INCLINATION":87.9007,"RA_OF_ASC_NODE":248.512,"ARG_OF_PERICENTER":94.2745,"MEAN_ANOMALY":265.8614,"EPHEMERIS_TYPE":0,"CLASSIFICATION_TYPE":"U","NORAD_CAT_ID":48998,"ELEMENT_SET_NO":999,"REV_AT_EPOCH":22650,"BSTAR":3.09006e-5,"MEAN_MOTION_DOT":2.5e-7,"MEAN_MOTION_DDOT":0},{"OBJECT_NAME":"FENGYUN 1C DEB","OBJECT_ID":"1999-025AUQ","EPOCH":"2026-03-09T00:10:41.404224","MEAN_MOTION":13.70585074,"ECCENTRICITY":0.02666258,"INCLINATION":99.0288,"RA_OF_ASC_NODE":94.4304,"ARG_OF_PERICENTER":262.8534,"MEAN_ANOMALY":124.0623,"EPHEMERIS_TYPE":0,"CLASSIFICATION_TYPE":"U","NORAD_CAT_ID":30806,"ELEMENT_SET_NO":999,"REV_AT_EPOCH":94877,"BSTAR":0.00094592753,"MEAN_MOTION_DOT":1.036e-5,"MEAN_MOTION_DDOT":0}]
